OBJECT_NAME,OBJECT_ID,EPOCH,MEAN_MOTION,ECCENTRICITY,INCLINATION,RA_OF_ASC_NODE,ARG_OF_PERICENTER,MEAN_ANOMALY,EPHEMERIS_TYPE,CLASSIFICATION_TYPE,NORAD_CAT_ID,ELEMENT_SET_NO,REV_AT_EPOCH,BSTAR,MEAN_MOTION_DOT,MEAN_MOTION_DDOT
STARLINK-31825,2024-112U,2024-12-04T13:07:01.183008,15.30278004,.0001098,53.1606,55.5308,131.6719,228.4376,0,U,60056,999,2814,.35249E-3,.1012E-3,0
STARLINK-31437,2024-112V,2024-12-04T13:16:15.778560,15.30192170,.0001576,53.1609,55.5684,108.9334,251.1838,0,U,60057,999,2814,-.10763E-3,-.3545E-4,0
DRO-B,2024-048D,2024-11-26T00:00:00.000000,0.02961956,.3299843,30.1258,4.8642,109.9134,49.2460,0,U,60058,999,1,0,-.874E-4,0
STARLINK-11181 [DTC],2024-113A,2024-12-04T07:46:01.576704,15.69729433,.0000851,53.1566,300.7883,76.8444,283.2669,0,U,60059,999,2725,.10786E-3,.12509E-3,0
STARLINK-11176 [DTC],2024-113B,2024-12-04T04:35:37.007520,15.69678846,.0001064,53.1584,301.3820,78.2132,281.9005,0,U,60060,999,2723,-.58787E-4,-.7694E-4,0
STARLINK-11167 [DTC],2024-113C,2024-12-04T09:03:34.926912,15.69708755,.0001007,53.1568,300.4073,151.5545,208.5528,0,U,60061,999,2756,-.2064E-4,-.3088E-4,0
STARLINK-11166 [DTC],2024-113D,2024-12-04T08:56:33.027936,15.69691531,.0001332,53.1589,300.3768,93.6832,266.4338,0,U,60062,999,2726,-.20168E-4,-.3029E-4,0
STARLINK-11165 [DTC],2024-113E,2024-12-04T08:49:27.095808,15.69731027,.0001008,53.1562,300.3434,89.6300,270.4834,0,U,60063,999,2726,.92467E-4,.10638E-3,0
STARLINK-11169 [DTC],2024-113F,2024-12-04T07:10:42.302208,15.69713179,.0000969,53.1577,300.6228,75.2898,284.8227,0,U,60064,999,2725,.82947E-5,.417E-5,0
STARLINK-11102 [DTC],2024-113G,2024-12-04T04:00:17.093664,15.69702770,.0001387,53.1590,301.2174,72.4425,287.6744,0,U,60065,999,2723,.15878E-4,.1334E-4,0
STARLINK-11141 [DTC],2024-113H,2024-12-04T06:56:34.587744,15.69707662,.0001163,53.1585,300.5535,93.8795,266.2356,0,U,60066,999,2725,.15569E-4,.1298E-4,0
STARLINK-11153 [DTC],2024-113J,2024-12-04T14:28:05.784672,15.69702080,.0001464,53.1581,299.6892,92.7697,267.3489,0,U,60067,999,2729,-.52434E-5,-.1224E-4,0
STARLINK-11170 [DTC],2024-113K,2024-12-04T14:21:01.397376,15.69707848,.0001301,53.1575,299.6595,80.1862,279.9303,0,U,60068,999,2729,.32628E-5,-.194E-5,0
STARLINK-11171 [DTC],2024-113L,2024-12-04T03:32:10.140576,15.69712425,.0001584,53.1595,301.8221,87.1025,273.0174,0,U,60069,999,2722,.11987E-4,.863E-5,0
STARLINK-11186 [DTC],2024-113M,2024-12-04T08:00:09.714528,15.69718736,.0002206,53.1566,300.8465,88.6263,271.5008,0,U,60070,999,2766,.8459E-4,.9674E-4,0
STARLINK-11184 [DTC],2024-113N,2024-12-04T04:49:43.718880,15.69716826,.000129,53.1591,301.4829,92.5084,267.6082,0,U,60071,999,2723,.568E-5,.99E-6,0
STARLINK-32032,2024-113U,2024-12-04T06:48:17.088768,15.30194549,.0000787,53.1593,337.3802,40.9476,319.1584,0,U,60077,999,2674,-.84891E-4,-.2872E-4,0
KINEIS-1B,2024-114A,2024-12-04T14:16:30.517824,14.78653788,.0004015,98.0214,354.7757,103.4099,256.7559,0,U,60079,999,2464,.44446E-3,.3205E-4,0
KINEIS-1C,2024-114C,2024-12-04T13:49:24.115584,14.78275606,.0001669,98.0215,354.6446,132.3491,227.7861,0,U,60081,999,2462,.40849E-3,.2915E-4,0
KINEIS-1D,2024-114D,2024-12-04T14:04:18.805728,14.74895829,.0001854,98.0216,354.1608,141.2782,218.8560,0,U,60082,999,2459,.36747E-3,.2416E-4,0
KINEIS-1E,2024-114E,2024-12-04T13:32:35.511360,14.78343648,.0002097,98.0215,354.6613,100.1647,259.9800,0,U,60083,999,2462,.39283E-3,.2806E-4,0
KINEIS-1A,2024-114F,2024-12-04T14:32:29.804064,14.78263416,.0003724,98.0216,354.7647,116.1051,244.0543,0,U,60084,999,2463,.3991E-3,.2846E-4,0
ELECTRON KICK STAGE R/B,2024-114G,2024-12-04T14:16:35.484960,15.02943890,.0080339,98.0098,0.5827,193.9733,165.9269,0,U,60085,999,2500,.91057E-3,.13071E-3,0
ASTRA 1P (SES-24),2024-115A,2024-12-04T03:49:42.687840,1.00270627,.0002266,0.0567,99.8166,217.4404,164.1108,0,U,60086,999,158,0,-.55E-6,0
CATCH-1,2024-116A,2024-12-04T13:37:40.314144,14.81606947,.0004616,28.9968,47.7150,111.5238,248.5848,0,U,60088,999,2448,.58964E-3,.4857E-4,0
SVOM,2024-116B,2024-12-04T13:07:08.242752,14.80992184,.0005776,28.9970,48.5266,97.9379,262.1869,0,U,60089,999,2447,.51251E-3,.4177E-4,0
STARLINK-31441,2024-117A,2024-12-04T12:30:27.006624,15.30187074,.0000994,53.1587,14.4853,87.7002,272.4113,0,U,60091,999,2643,-.23343E-4,-.105E-4,0
STARLINK-32044,2024-117B,2024-12-04T12:01:34.551840,15.30195951,.0001255,53.1620,14.3614,88.8454,271.2690,0,U,60092,999,2643,-.23836E-4,-.1065E-4,0
STARLINK-31239,2024-117C,2024-12-04T10:09:27.319968,15.30184603,.0001185,53.1594,15.3024,97.8448,262.2687,0,U,60093,999,2641,-.11576E-3,-.3784E-4,0
STARLINK-32007,2024-117D,2024-12-04T09:49:42.484800,15.30195620,.0001523,53.1606,15.2178,113.7691,246.3469,0,U,60094,999,2641,-.17471E-3,-.5529E-4,0
