STARLINK-31825          
1 60056U 24112U   24339.54654147  .00010120  00000+0  35249-3 0  9993
2 60056  53.1606  55.5308 0001098 131.6719 228.4376 15.30278004 28149
STARLINK-31437          
1 60057U 24112V   24339.55296040 -.00003545  00000+0 -10763-3 0  9998
2 60057  53.1609  55.5684 0001576 108.9334 251.1838 15.30192170 28146
DRO-B                   
1 60058U 24048D   24331.00000000 -.00008740  00000+0  00000+0 0  9998
2 60058  30.1258   4.8642 3299843 109.9134  49.2460  0.02961956    13
STARLINK-11181 [DTC]    
1 60059U 24113A   24339.32362936  .00012509  00000+0  10786-3 0  9997
2 60059  53.1566 300.7883 0000851  76.8444 283.2669 15.69729433 27255
STARLINK-11176 [DTC]    
1 60060U 24113B   24339.19140055 -.00007694  00000+0 -58787-4 0  9995
2 60060  53.1584 301.3820 0001064  78.2132 281.9005 15.69678846 27230
STARLINK-11167 [DTC]    
1 60061U 24113C   24339.37748758 -.00003088  00000+0 -20640-4 0  9990
2 60061  53.1568 300.4073 0001007 151.5545 208.5528 15.69708755 27567
STARLINK-11166 [DTC]    
1 60062U 24113D   24339.37260449 -.00003029  00000+0 -20168-4 0  9997
2 60062  53.1589 300.3768 0001332  93.6832 266.4338 15.69691531 27269
STARLINK-11165 [DTC]    
1 60063U 24113E   24339.36767472  .00010638  00000+0  92467-4 0  9998
2 60063  53.1562 300.3434 0001008  89.6300 270.4834 15.69731027 27267
STARLINK-11169 [DTC]    
1 60064U 24113F   24339.29910072  .00000417  00000+0  82947-5 0  9994
2 60064  53.1577 300.6228 0000969  75.2898 284.8227 15.69713179 27258
STARLINK-11102 [DTC]    
1 60065U 24113G   24339.16686451  .00001334  00000+0  15878-4 0  9999
2 60065  53.1590 301.2174 0001387  72.4425 287.6744 15.69702770 27239
STARLINK-11141 [DTC]    
1 60066U 24113H   24339.28928921  .00001298  00000+0  15569-4 0  9990
2 60066  53.1585 300.5535 0001163  93.8795 266.2356 15.69707662 27255
STARLINK-11153 [DTC]    
1 60067U 24113J   24339.60284473 -.00001224  00000+0 -52434-5 0  9998
2 60067  53.1581 299.6892 0001464  92.7697 267.3489 15.69702080 27291
STARLINK-11170 [DTC]    
1 60068U 24113K   24339.59793284 -.00000194  00000+0  32628-5 0  9999
2 60068  53.1575 299.6595 0001301  80.1862 279.9303 15.69707848 27291
STARLINK-11171 [DTC]    
1 60069U 24113L   24339.14733959  .00000863  00000+0  11987-4 0  9990
2 60069  53.1595 301.8221 0001584  87.1025 273.0174 15.69712425 27228
STARLINK-11186 [DTC]    
1 60070U 24113M   24339.33344577  .00009674  00000+0  84590-4 0  9996
2 60070  53.1566 300.8465 0002206  88.6263 271.5008 15.69718736 27667
STARLINK-11184 [DTC]    
1 60071U 24113N   24339.20120045  .00000099  00000+0  56800-5 0  9991
2 60071  53.1591 301.4829 0001290  92.5084 267.6082 15.69716826 27233
STARLINK-32032          
1 60077U 24113U   24339.28353112 -.00002872  00000+0 -84891-4 0  9991
2 60077  53.1593 337.3802 0000787  40.9476 319.1584 15.30194549 26747
KINEIS-1B               
1 60079U 24114A   24339.59479766  .00003205  00000+0  44446-3 0  9992
2 60079  98.0214 354.7757 0004015 103.4099 256.7559 14.78653788 24644
KINEIS-1C               
1 60081U 24114C   24339.57597356  .00002915  00000+0  40849-3 0  9999
2 60081  98.0215 354.6446 0001669 132.3491 227.7861 14.78275606 24622
KINEIS-1D               
1 60082U 24114D   24339.58632877  .00002416  00000+0  36747-3 0  9997
2 60082  98.0216 354.1608 0001854 141.2782 218.8560 14.74895829 24591
KINEIS-1E               
1 60083U 24114E   24339.56429990  .00002806  00000+0  39283-3 0  9997
2 60083  98.0215 354.6613 0002097 100.1647 259.9800 14.78343648 24624
KINEIS-1A               
1 60084U 24114F   24339.60590051  .00002846  00000+0  39910-3 0  9991
2 60084  98.0216 354.7647 0003724 116.1051 244.0543 14.78263416 24632
ELECTRON KICK STAGE R/B 
1 60085U 24114G   24339.59485515  .00013071  00000+0  91057-3 0  9990
2 60085  98.0098   0.5827 0080339 193.9733 165.9269 15.02943890 25001
ASTRA 1P (SES-24)       
1 60086U 24115A   24339.15952185 -.00000055  00000+0  00000+0 0  9999
2 60086   0.0567  99.8166 0002266 217.4404 164.1108  1.00270627  1587
CATCH-1                 
1 60088U 24116A   24339.56782771  .00004857  00000+0  58964-3 0  9998
2 60088  28.9968  47.7150 0004616 111.5238 248.5848 14.81606947 24481
SVOM                    
1 60089U 24116B   24339.54662318  .00004177  00000+0  51251-3 0  9998
2 60089  28.9970  48.5266 0005776  97.9379 262.1869 14.80992184 24477
STARLINK-31441          
1 60091U 24117A   24339.52114591 -.00001050  00000+0 -23343-4 0  9996
2 60091  53.1587  14.4853 0000994  87.7002 272.4113 15.30187074 26439
STARLINK-32044          
1 60092U 24117B   24339.50109435 -.00001065  00000+0 -23836-4 0  9999
2 60092  53.1620  14.3614 0001255  88.8454 271.2690 15.30195951 26436
STARLINK-31239          
1 60093U 24117C   24339.42323287 -.00003784  00000+0 -11576-3 0  9991
2 60093  53.1594  15.3024 0001185  97.8448 262.2687 15.30184603 26414
STARLINK-32007          
1 60094U 24117D   24339.40951950 -.00005529  00000+0 -17471-3 0  9993
2 60094  53.1606  15.2178 0001523 113.7691 246.3469 15.30195620 26414
